{
  "type": "FeatureCollection",
  "features": [
    {
      "type": "Feature",
      "properties": {
        "norad_id": 36711,
        "name": "FENGYUN 1C DEB",
        "group": "fengyun-1c-debris",
        "lat": 62.41994715346789,
        "lon": -149.8432026336622,
        "alt_km": 739.8869563332892,
        "timestamp": "2025-12-14T20:40:32.060218+00:00",
        "meta_object_name": "FENGYUN 1C DEB",
        "meta_object_id": "1999-025EAH",
        "meta_epoch": "2025-11-29T18:49:32.545344",
        "meta_mean_motion": 14.42080972,
        "meta_eccentricity": 0.01000486,
        "meta_inclination": 100.8061,
        "meta_ra_of_asc_node": 349.6584,
        "meta_arg_of_pericenter": 244.1532,
        "meta_mean_anomaly": 114.9305,
        "meta_ephemeris_type": 0,
        "meta_classification_type": "U",
        "meta_norad_cat_id": 36711,
        "meta_element_set_no": 999,
        "meta_rev_at_epoch": 64124,
        "meta_bstar": 0.0024295961,
        "meta_mean_motion_dot": 8.419e-05,
        "meta_mean_motion_ddot": 0,
        "tle_line1": "1 36711U 99025EAH 25333.78440446  .00008419  00000+0  24296-2 0  9992",
        "tle_line2": "2 36711 100.8061 349.6584 0100048 244.1532 114.9305 14.42080972641246"
      },
      "geometry": {
        "type": "Point",
        "coordinates": [
          -149.8432026336622,
          62.41994715346789
        ]
      }
    },
    {
      "type": "Feature",
      "properties": {
        "norad_id": 36716,
        "name": "FENGYUN 1C DEB",
        "group": "fengyun-1c-debris",
        "lat": 70.16969965961482,
        "lon": 114.68235015706391,
        "alt_km": 972.7908695728984,
        "timestamp": "2025-12-14T20:40:32.060228+00:00",
        "meta_object_name": "FENGYUN 1C DEB",
        "meta_object_id": "1999-025EAN",
        "meta_epoch": "2025-12-10T12:22:25.648032",
        "meta_mean_motion": 13.88411976,
        "meta_eccentricity": 0.0148045,
        "meta_inclination": 99.2282,
        "meta_ra_of_asc_node": 263.5873,
        "meta_arg_of_pericenter": 234.8718,
        "meta_mean_anomaly": 123.849,
        "meta_ephemeris_type": 0,
        "meta_classification_type": "U",
        "meta_norad_cat_id": 36716,
        "meta_element_set_no": 999,
        "meta_rev_at_epoch": 62900,
        "meta_bstar": 0.00035629,
        "meta_mean_motion_dot": 4.21e-06,
        "meta_mean_motion_ddot": 0,
        "tle_line1": "1 36716U 99025EAN 25344.51557463  .00000421  00000+0  35629-3 0  9996",
        "tle_line2": "2 36716  99.2282 263.5873 0148045 234.8718 123.8490 13.88411976629008"
      },
      "geometry": {
        "type": "Point",
        "coordinates": [
          114.68235015706391,
          70.16969965961482
        ]
      }
    },
    {
      "type": "Feature",
      "properties": {
        "norad_id": 36724,
        "name": "FENGYUN 1C DEB",
        "group": "fengyun-1c-debris",
        "lat": -75.6391850704633,
        "lon": 160.08477941083845,
        "alt_km": 785.6361849880795,
        "timestamp": "2025-12-14T20:40:32.060238+00:00",
        "meta_object_name": "FENGYUN 1C DEB",
        "meta_object_id": "1999-025EAW",
        "meta_epoch": "2025-12-10T01:02:55.934016",
        "meta_mean_motion": 14.25243591,
        "meta_eccentricity": 0.01036768,
        "meta_inclination": 99.4684,
        "meta_ra_of_asc_node": 15.5672,
        "meta_arg_of_pericenter": 205.2556,
        "meta_mean_anomaly": 186.4891,
        "meta_ephemeris_type": 0,
        "meta_classification_type": "U",
        "meta_norad_cat_id": 36724,
        "meta_element_set_no": 999,
        "meta_rev_at_epoch": 57434,
        "meta_bstar": 0.0025842278,
        "meta_mean_motion_dot": 6.383e-05,
        "meta_mean_motion_ddot": 0,
        "tle_line1": "1 36724U 99025EAW 25344.04370294  .00006383  00000+0  25842-2 0  9996",
        "tle_line2": "2 36724  99.4684  15.5672 0103676 205.2556 186.4891 14.25243591574344"
      },
      "geometry": {
        "type": "Point",
        "coordinates": [
          160.08477941083845,
          -75.6391850704633
        ]
      }
    },
    {
      "type": "Feature",
      "properties": {
        "norad_id": 36729,
        "name": "FENGYUN 1C DEB",
        "group": "fengyun-1c-debris",
        "lat": -17.549360535853978,
        "lon": 147.82038713131976,
        "alt_km": 843.0696119188051,
        "timestamp": "2025-12-14T20:40:32.060248+00:00",
        "meta_object_name": "FENGYUN 1C DEB",
        "meta_object_id": "1999-025EBB",
        "meta_epoch": "2025-12-13T04:34:30.152064",
        "meta_mean_motion": 14.10317434,
        "meta_eccentricity": 0.00453362,
        "meta_inclination": 98.7081,
        "meta_ra_of_asc_node": 328.9806,
        "meta_arg_of_pericenter": 254.8345,
        "meta_mean_anomaly": 104.7809,
        "meta_ephemeris_type": 0,
        "meta_classification_type": "U",
        "meta_norad_cat_id": 36729,
        "meta_element_set_no": 999,
        "meta_rev_at_epoch": 87258,
        "meta_bstar": 0.00039273708,
        "meta_mean_motion_dot": 6.61e-06,
        "meta_mean_motion_ddot": 0,
        "tle_line1": "1 36729U 99025EBB 25347.19062676  .00000661  00000+0  39274-3 0  9990",
        "tle_line2": "2 36729  98.7081 328.9806 0045336 254.8345 104.7809 14.10317434872587"
      },
      "geometry": {
        "type": "Point",
        "coordinates": [
          147.82038713131976,
          -17.549360535853978
        ]
      }
    },
    {
      "type": "Feature",
      "properties": {
        "norad_id": 36734,
        "name": "FENGYUN 1C DEB",
        "group": "fengyun-1c-debris",
        "lat": 73.81751126384778,
        "lon": 2.487438931164957,
        "alt_km": 817.3340659999785,
        "timestamp": "2025-12-14T20:40:32.060258+00:00",
        "meta_object_name": "FENGYUN 1C DEB",
        "meta_object_id": "1999-025EBG",
        "meta_epoch": "2025-12-13T14:00:04.416480",
        "meta_mean_motion": 14.25866411,
        "meta_eccentricity": 0.00362904,
        "meta_inclination": 99.0563,
        "meta_ra_of_asc_node": 34.5076,
        "meta_arg_of_pericenter": 216.8146,
        "meta_mean_anomaly": 143.054,
        "meta_ephemeris_type": 0,
        "meta_classification_type": "U",
        "meta_norad_cat_id": 36734,
        "meta_element_set_no": 999,
        "meta_rev_at_epoch": 82746,
        "meta_bstar": 0.0020862953,
        "meta_mean_motion_dot": 4.956e-05,
        "meta_mean_motion_ddot": 0,
        "tle_line1": "1 36734U 99025EBG 25347.58338445  .00004956  00000+0  20863-2 0  9993",
        "tle_line2": "2 36734  99.0563  34.5076 0036290 216.8146 143.0540 14.25866411827462"
      },
      "geometry": {
        "type": "Point",
        "coordinates": [
          2.487438931164957,
          73.81751126384778
        ]
      }
    },
    {
      "type": "Feature",
      "properties": {
        "norad_id": 36736,
        "name": "FENGYUN 1C DEB",
        "group": "fengyun-1c-debris",
        "lat": 6.598839247188329,
        "lon": -116.6419158650807,
        "alt_km": 774.69288699559,
        "timestamp": "2025-12-14T20:40:32.060268+00:00",
        "meta_object_name": "FENGYUN 1C DEB",
        "meta_object_id": "1999-025EBJ",
        "meta_epoch": "2025-12-13T11:51:45.923328",
        "meta_mean_motion": 14.25478828,
        "meta_eccentricity": 0.00610834,
        "meta_inclination": 98.8058,
        "meta_ra_of_asc_node": 60.9581,
        "meta_arg_of_pericenter": 138.0279,
        "meta_mean_anomaly": 222.5605,
        "meta_ephemeris_type": 0,
        "meta_classification_type": "U",
        "meta_norad_cat_id": 36736,
        "meta_element_set_no": 999,
        "meta_rev_at_epoch": 88626,
        "meta_bstar": 0.0027114749,
        "meta_mean_motion_dot": 6.492e-05,
        "meta_mean_motion_ddot": 0,
        "tle_line1": "1 36736U 99025EBJ 25347.49428152  .00006492  00000+0  27115-2 0  9994",
        "tle_line2": "2 36736  98.8058  60.9581 0061083 138.0279 222.5605 14.25478828886263"
      },
      "geometry": {
        "type": "Point",
        "coordinates": [
          -116.6419158650807,
          6.598839247188329
        ]
      }
    },
    {
      "type": "Feature",
      "properties": {
        "norad_id": 36743,
        "name": "FENGYUN 1C DEB",
        "group": "fengyun-1c-debris",
        "lat": -49.69325816139374,
        "lon": -153.2328814687956,
        "alt_km": 826.2892519945735,
        "timestamp": "2025-12-14T20:40:32.060278+00:00",
        "meta_object_name": "FENGYUN 1C DEB",
        "meta_object_id": "1999-025EBR",
        "meta_epoch": "2025-12-06T23:24:01.212192",
        "meta_mean_motion": 14.29041368,
        "meta_eccentricity": 0.00476846,
        "meta_inclination": 98.6555,
        "meta_ra_of_asc_node": 29.2835,
        "meta_arg_of_pericenter": 30.1026,
        "meta_mean_anomaly": 330.2881,
        "meta_ephemeris_type": 0,
        "meta_classification_type": "U",
        "meta_norad_cat_id": 36743,
        "meta_element_set_no": 999,
        "meta_rev_at_epoch": 60655,
        "meta_bstar": 0.0020129322,
        "meta_mean_motion_dot": 5.118e-05,
        "meta_mean_motion_ddot": 0,
        "tle_line1": "1 36743U 99025EBR 25340.97501403  .00005118  00000+0  20129-2 0  9991",
        "tle_line2": "2 36743  98.6555  29.2835 0047684  30.1026 330.2881 14.29041368606558"
      },
      "geometry": {
        "type": "Point",
        "coordinates": [
          -153.2328814687956,
          -49.69325816139374
        ]
      }
    }
  ]
}